{"title":"Quick check: Weather","scoring":{"passing_score":2,"total_questions":2},"questions":[{"position":1,"type":"multiple_choice","prompt":"METAR purpose?","choices":[{"id":"a","text":"Forecast."},{"id":"b","text":"Current routine weather report at airport. Updated hourly. Standard format: KSFO 152254Z 28012KT 10SM BKN013 12/09 A3015 = SFO at 22:54 UTC, wind 280@12 kts, vis 10SM, broken 1,300 ft, temp 12/dew 9, altimeter 30.15."},{"id":"c","text":"Use Opus."},{"id":"d","text":"Use Sonnet."}],"correct_answer":"b","explanation":"METAR = current hourly weather report.","points":1},{"position":2,"type":"scenario","prompt":"Where to get pre-flight weather?","choices":[{"id":"a","text":"News."},{"id":"b","text":"aviationweather.gov + ForeFlight + 1-800-WX-BRIEF. Standard briefing required for IFR. Apps integrate METAR/TAF/PIREP/SIGMET. Cross-check sources before launch."},{"id":"c","text":"Use Opus."},{"id":"d","text":"Use Sonnet."}],"correct_answer":"b","explanation":"Multiple FAA-sanctioned sources.","points":1}]}
